[{"OBJECT_NAME":"SUPERVIEW NEO-2 04","OBJECT_ID":"2024-218C","EPOCH":"2026-03-09T13:29:09.194208","MEAN_MOTION":15.1971885,"ECCENTRICITY":0.0001369,"INCLINATION":97.4396,"RA_OF_ASC_NODE":77.3157,"ARG_OF_PERICENTER":109.3587,"MEAN_ANOMALY":250.7796,"EPHEMERIS_TYPE":0,"CLASSIFICATION_TYPE":"U","NORAD_CAT_ID":62080,"ELEMENT_SET_NO":999,"REV_AT_EPOCH":7131,"BSTAR":0.00019862,"MEAN_MOTION_DOT":4.175e-5,"MEAN_MOTION_DDOT":0},{"OBJECT_NAME":"GHGSAT-C13","OBJECT_ID":"2025-135W","EPOCH":"2026-03-09T21:19:51.572640","MEAN_MOTION":15.20248668,"ECCENTRICITY":0.00027022,"INCLINATION":97.4646,"RA_OF_ASC_NODE":185.1231,"ARG_OF_PERICENTER":97.1001,"MEAN_ANOMALY":263.0541,"EPHEMERIS_TYPE":0,"CLASSIFICATION_TYPE":"U","NORAD_CAT_ID":64548,"ELEMENT_SET_NO":999,"REV_AT_EPOCH":3976,"BSTAR":0.00021160273,"MEAN_MOTION_DOT":4.522e-5,"MEAN_MOTION_DDOT":0}]
